OBJECT_NAME,OBJECT_ID,EPOCH,MEAN_MOTION,ECCENTRICITY,INCLINATION,RA_OF_ASC_NODE,ARG_OF_PERICENTER,MEAN_ANOMALY,EPHEMERIS_TYPE,CLASSIFICATION_TYPE,NORAD_CAT_ID,ELEMENT_SET_NO,REV_AT_EPOCH,BSTAR,MEAN_MOTION_DOT,MEAN_MOTION_DDOT
ONEWEB-0721,2023-068R,2026-06-11T18:26:03.129792,13.22468581,.00019179,86.6768,87.2458,78.1316,282.0032,0,U,56725,999,15722,-.76590816E-4,-.17E-6,0
ONEWEB-0015,2024-188A,2026-06-11T14:05:34.492128,13.11419500,.0002285,87.8892,22.2081,75.8714,284.2667,0,U,61594,999,8372,.9105E-3,.335E-5,0
ONEWEB-0687,2024-188B,2026-06-11T14:40:33.746016,13.17647384,.00023529,87.9130,6.9864,89.3318,270.8083,0,U,61595,999,8516,-.14198166E-4,.7E-7,0
ONEWEB-0688,2024-188C,2026-06-11T22:39:16.119648,13.17648077,.00028494,87.9130,6.9197,69.3058,290.8378,0,U,61596,999,8520,.43975292E-4,.3E-6,0
ONEWEB-0689,2024-188D,2026-06-11T14:54:23.743296,13.11416273,.00020097,87.8903,22.1584,92.3932,267.7426,0,U,61597,999,8372,-.33776574E-3,-.107E-5,0
ONEWEB-0690,2024-188E,2026-06-11T15:09:02.423520,13.11415073,.00013693,87.8900,22.1680,67.1075,293.0198,0,U,61598,999,8390,-.16410677E-2,-.569E-5,0
ONEWEB-0691,2024-188F,2026-06-11T15:01:43.919328,13.11415006,.00021767,87.8907,22.0775,80.5441,279.5933,0,U,61599,999,8375,-.1094104E-2,-.375E-5,0
ONEWEB-0692,2024-188G,2026-06-11T15:31:00.666336,13.11418828,.00016844,87.8890,22.1878,110.8934,249.2374,0,U,61600,999,8374,-.14428102E-2,-.499E-5,0
ONEWEB-0693,2024-188H,2026-06-11T13:49:31.773216,13.17647983,.0001497,87.9128,7.0132,62.2007,297.9276,0,U,61601,999,8514,.71736E-4,.41E-6,0
ONEWEB-0695,2024-188J,2026-06-11T14:56:50.580096,13.11414321,.00019428,87.8889,22.1844,100.9002,259.2344,0,U,61602,999,8373,-.52702354E-3,-.174E-5,0
ONEWEB-0697,2024-188K,2026-06-11T15:43:13.657152,13.11420186,.00015562,87.8892,22.1684,109.7398,250.3898,0,U,61603,999,8372,-.87647108E-4,-.18E-6,0
ONEWEB-0698,2024-188L,2026-06-11T15:11:28.620960,13.11414960,.00006989,87.8889,22.1869,104.8064,255.3141,0,U,61604,999,8374,-.14780078E-2,-.511E-5,0
ONEWEB-0699,2024-188M,2026-06-11T15:23:39.274656,13.10372914,.00014528,87.8835,37.3706,102.1867,257.9423,0,U,61605,999,8258,.2015993E-2,.716E-5,0
ONEWEB-0700,2024-188N,2026-06-11T15:26:02.544000,13.10372801,.00018226,87.8857,37.2784,104.1843,255.9487,0,U,61606,999,8257,.20698181E-2,.735E-5,0
ONEWEB-0701,2024-188P,2026-06-11T15:49:55.716960,13.10369524,.00014186,87.8837,37.3662,109.2223,250.9058,0,U,61607,999,8258,.1071679E-3,.5E-6,0
ONEWEB-0702,2024-188Q,2026-06-11T16:17:25.843776,13.11417927,.00018075,87.8908,22.0825,117.3899,242.7413,0,U,61608,999,8376,.16166726E-2,.586E-5,0
ONEWEB-0704,2024-188R,2026-06-11T15:33:12.884256,13.10371382,.00020166,87.8849,37.3575,114.9517,245.1820,0,U,61609,999,8256,.15729413E-2,.562E-5,0
ONEWEB-0705,2024-188S,2026-06-11T15:40:23.441376,13.10367234,.00025476,87.8844,37.3621,100.5594,259.5821,0,U,61610,999,7473,-.70665823E-3,-.234E-5,0
ONEWEB-0706,2024-188T,2026-06-11T17:08:49.638624,13.10374466,.00019485,87.8841,37.3555,100.4097,259.7250,0,U,61611,999,8266,.18692958E-2,.665E-5,0
ONEWEB-0707,2024-188U,2026-06-11T15:28:26.013792,13.10371988,.0001869,87.8846,37.3629,100.6159,259.5179,0,U,61612,999,8259,.1831337E-2,.652E-5,0
ONEWEB-0708,2024-188V,2026-06-11T15:54:42.405120,13.10369019,.00023287,87.8833,37.3781,85.8092,274.3301,0,U,61613,999,8257,-.36685486E-3,-.115E-5,0
